{
    "links": {
        "self": "http://www.neowsapp.com/rest/v1/neo/3434371?api_key=iIulBulltgU6a56xZRHN4H3l9WmuAYTsLGpBGhQ2"
    },
    "id": "3434371",
    "neo_reference_id": "3434371",
    "name": "(2008 UY91)",
    "designation": "2008 UY91",
    "nasa_jpl_url": "http://ssd.jpl.nasa.gov/sbdb.cgi?sstr=3434371",
    "absolute_magnitude_h": 24.338,
    "estimated_diameter": {
        "kilometers": {
            "estimated_diameter_min": 0.0360541264,
            "estimated_diameter_max": 0.0806194774
        },
        "meters": {
            "estimated_diameter_min": 36.0541263701,
            "estimated_diameter_max": 80.619477433
        },
        "miles": {
            "estimated_diameter_min": 0.0224029886,
            "estimated_diameter_max": 0.0500946053
        },
        "feet": {
            "estimated_diameter_min": 118.2878199602,
            "estimated_diameter_max": 264.4996063412
        }
    },
    "is_potentially_hazardous_asteroid": false,
    "close_approach_data": [
        {
            "close_approach_date": "2008-11-07",
            "close_approach_date_full": "2008-Nov-07 20:27",
            "epoch_date_close_approach": 1226089620000,
            "relative_velocity": {
                "kilometers_per_second": "21.4378807188",
                "kilometers_per_hour": "77176.37058764",
                "miles_per_hour": "47954.3953798589"
            },
            "miss_distance": {
                "astronomical": "0.1373027634",
                "lunar": "53.4107749626",
                "kilometers": "20540200.949753958",
                "miles": "12763089.0378743004"
            },
            "orbiting_body": "Earth"
        }
    ],
    "orbital_data": {
        "orbit_id": "12",
        "orbit_determination_date": "2019-12-18 11:13:48",
        "first_observation_date": "2008-10-28",
        "last_observation_date": "2008-10-28",
        "data_arc_in_days": null,
        "observations_used": 11,
        "orbit_uncertainty": "9",
        "minimum_orbit_intersection": ".111971",
        "jupiter_tisserand_invariant": "3.196",
        "epoch_osculation": "2454767.5",
        "eccentricity": ".669293573931508",
        "semi_major_axis": "2.207455988223179",
        "inclination": "29.87576707853071",
        "ascending_node_longitude": "213.9364002023062",
        "orbital_period": "1197.943973526406",
        "perihelion_distance": ".7300198805687786",
        "perihelion_argument": "267.0721111339278",
        "aphelion_distance": "3.684892095877579",
        "perihelion_time": "2454829.335463838898",
        "mean_anomaly": "341.4175224601916",
        "mean_motion": ".3005148888059119",
        "equinox": "J2000",
        "orbit_class": {
            "orbit_class_type": "APO",
            "orbit_class_description": "Near-Earth asteroid orbits which cross the Earth’s orbit similar to that of 1862 Apollo",
            "orbit_class_range": "a (semi-major axis) > 1.0 AU; q (perihelion) < 1.017 AU"
        }
    },
    "is_sentry_object": false
}